{
  "type": "FeatureCollection",
  "features": [
    {
      "type": "Feature",
      "properties": {
        "norad_id": 36533,
        "name": "COSMOS 2251 DEB",
        "group": "cosmos-2251-debris",
        "lat": -13.044829598334976,
        "lon": 114.32375749442461,
        "alt_km": 723.5991567137817,
        "timestamp": "2025-12-10T23:33:13.215121+00:00",
        "meta_object_name": "COSMOS 2251 DEB",
        "meta_object_id": "1993-036BCT",
        "meta_epoch": "2025-12-10T08:42:41.261184",
        "meta_mean_motion": 14.49801207,
        "meta_eccentricity": 0.00491978,
        "meta_inclination": 74.011,
        "meta_ra_of_asc_node": 119.2951,
        "meta_arg_of_pericenter": 268.8603,
        "meta_mean_anomaly": 90.692,
        "meta_ephemeris_type": 0,
        "meta_classification_type": "U",
        "meta_norad_cat_id": 36533,
        "meta_element_set_no": 999,
        "meta_rev_at_epoch": 84450,
        "meta_bstar": 0.00079270192,
        "meta_mean_motion_dot": 3.077e-05,
        "meta_mean_motion_ddot": 0,
        "tle_line1": "1 36533U 93036BCT 25344.36297756  .00003077  00000+0  79270-3 0  9998",
        "tle_line2": "2 36533  74.0110 119.2951 0049197 268.8603  90.6920 14.49801207844509"
      },
      "geometry": {
        "type": "Point",
        "coordinates": [
          114.32375749442461,
          -13.044829598334976
        ]
      }
    },
    {
      "type": "Feature",
      "properties": {
        "norad_id": 36539,
        "name": "COSMOS 2251 DEB",
        "group": "cosmos-2251-debris",
        "lat": 50.07380555860185,
        "lon": -141.48359416215538,
        "alt_km": 686.1387780437444,
        "timestamp": "2025-12-10T23:33:13.215131+00:00",
        "meta_object_name": "COSMOS 2251 DEB",
        "meta_object_id": "1993-036BCZ",
        "meta_epoch": "2025-12-10T14:44:42.252288",
        "meta_mean_motion": 14.59278561,
        "meta_eccentricity": 0.0027327,
        "meta_inclination": 74.0238,
        "meta_ra_of_asc_node": 59.2341,
        "meta_arg_of_pericenter": 204.7285,
        "meta_mean_anomaly": 155.2572,
        "meta_ephemeris_type": 0,
        "meta_classification_type": "U",
        "meta_norad_cat_id": 36539,
        "meta_element_set_no": 999,
        "meta_rev_at_epoch": 83916,
        "meta_bstar": 0.0011708678,
        "meta_mean_motion_dot": 5.534e-05,
        "meta_mean_motion_ddot": 0,
        "tle_line1": "1 36539U 93036BCZ 25344.61437792  .00005534  00000+0  11709-2 0  9990",
        "tle_line2": "2 36539  74.0238  59.2341 0027327 204.7285 155.2572 14.59278561839167"
      },
      "geometry": {
        "type": "Point",
        "coordinates": [
          -141.48359416215538,
          50.07380555860185
        ]
      }
    },
    {
      "type": "Feature",
      "properties": {
        "norad_id": 36540,
        "name": "COSMOS 2251 DEB",
        "group": "cosmos-2251-debris",
        "lat": 73.44330941523698,
        "lon": -70.58152579965069,
        "alt_km": 700.8186679774835,
        "timestamp": "2025-12-10T23:33:13.215140+00:00",
        "meta_object_name": "COSMOS 2251 DEB",
        "meta_object_id": "1993-036BDA",
        "meta_epoch": "2025-12-10T06:39:32.334048",
        "meta_mean_motion": 14.58442715,
        "meta_eccentricity": 0.0015131,
        "meta_inclination": 74.0281,
        "meta_ra_of_asc_node": 185.2051,
        "meta_arg_of_pericenter": 255.4222,
        "meta_mean_anomaly": 104.5265,
        "meta_ephemeris_type": 0,
        "meta_classification_type": "U",
        "meta_norad_cat_id": 36540,
        "meta_element_set_no": 999,
        "meta_rev_at_epoch": 85974,
        "meta_bstar": 0.001482,
        "meta_mean_motion_dot": 6.863e-05,
        "meta_mean_motion_ddot": 0,
        "tle_line1": "1 36540U 93036BDA 25344.27745757  .00006863  00000+0  14820-2 0  9990",
        "tle_line2": "2 36540  74.0281 185.2051 0015131 255.4222 104.5265 14.58442715859744"
      },
      "geometry": {
        "type": "Point",
        "coordinates": [
          -70.58152579965069,
          73.44330941523698
        ]
      }
    },
    {
      "type": "Feature",
      "properties": {
        "norad_id": 36550,
        "name": "COSMOS 2251 DEB",
        "group": "cosmos-2251-debris",
        "lat": 46.086358000179104,
        "lon": -1.364662525090329,
        "alt_km": 820.7340584267895,
        "timestamp": "2025-12-10T23:33:13.215149+00:00",
        "meta_object_name": "COSMOS 2251 DEB",
        "meta_object_id": "1993-036BDL",
        "meta_epoch": "2025-12-10T07:47:30.355296",
        "meta_mean_motion": 14.27188592,
        "meta_eccentricity": 0.00785726,
        "meta_inclination": 74.0439,
        "meta_ra_of_asc_node": 197.11,
        "meta_arg_of_pericenter": 248.3043,
        "meta_mean_anomaly": 110.9727,
        "meta_ephemeris_type": 0,
        "meta_classification_type": "U",
        "meta_norad_cat_id": 36550,
        "meta_element_set_no": 999,
        "meta_rev_at_epoch": 84561,
        "meta_bstar": 0.00085111774,
        "meta_mean_motion_dot": 2.122e-05,
        "meta_mean_motion_ddot": 0,
        "tle_line1": "1 36550U 93036BDL 25344.32465689  .00002122  00000+0  85112-3 0  9997",
        "tle_line2": "2 36550  74.0439 197.1100 0078572 248.3043 110.9727 14.27188592845618"
      },
      "geometry": {
        "type": "Point",
        "coordinates": [
          -1.364662525090329,
          46.086358000179104
        ]
      }
    },
    {
      "type": "Feature",
      "properties": {
        "norad_id": 36551,
        "name": "COSMOS 2251 DEB",
        "group": "cosmos-2251-debris",
        "lat": 66.56498845083888,
        "lon": 60.15643307230069,
        "alt_km": 561.4169980657261,
        "timestamp": "2025-12-10T23:33:13.215158+00:00",
        "meta_object_name": "COSMOS 2251 DEB",
        "meta_object_id": "1993-036BDM",
        "meta_epoch": "2025-12-10T08:50:58.961472",
        "meta_mean_motion": 15.0244144,
        "meta_eccentricity": 0.00508419,
        "meta_inclination": 73.886,
        "meta_ra_of_asc_node": 19.5853,
        "meta_arg_of_pericenter": 329.1413,
        "meta_mean_anomaly": 30.6788,
        "meta_ephemeris_type": 0,
        "meta_classification_type": "U",
        "meta_norad_cat_id": 36551,
        "meta_element_set_no": 999,
        "meta_rev_at_epoch": 66896,
        "meta_bstar": 0.0019097723,
        "meta_mean_motion_dot": 0.00026098,
        "meta_mean_motion_ddot": 0,
        "tle_line1": "1 36551U 93036BDM 25344.36873798  .00026098  00000+0  19098-2 0  9993",
        "tle_line2": "2 36551  73.8860  19.5853 0050841 329.1413  30.6788 15.02441440668968"
      },
      "geometry": {
        "type": "Point",
        "coordinates": [
          60.15643307230069,
          66.56498845083888
        ]
      }
    },
    {
      "type": "Feature",
      "properties": {
        "norad_id": 36557,
        "name": "COSMOS 2251 DEB",
        "group": "cosmos-2251-debris",
        "lat": -27.393260833261508,
        "lon": -41.720385910747524,
        "alt_km": 636.2269759390583,
        "timestamp": "2025-12-10T23:33:13.215167+00:00",
        "meta_object_name": "COSMOS 2251 DEB",
        "meta_object_id": "1993-036BDT",
        "meta_epoch": "2025-12-08T17:00:11.364768",
        "meta_mean_motion": 14.77931999,
        "meta_eccentricity": 0.00210313,
        "meta_inclination": 73.9794,
        "meta_ra_of_asc_node": 134.1932,
        "meta_arg_of_pericenter": 285.3686,
        "meta_mean_anomaly": 74.5165,
        "meta_ephemeris_type": 0,
        "meta_classification_type": "U",
        "meta_norad_cat_id": 36557,
        "meta_element_set_no": 999,
        "meta_rev_at_epoch": 33837,
        "meta_bstar": 0.00427946,
        "meta_mean_motion_dot": 0.00031056,
        "meta_mean_motion_ddot": 0,
        "tle_line1": "1 36557U 93036BDT 25342.70846487  .00031056  00000+0  42795-2 0  9990",
        "tle_line2": "2 36557  73.9794 134.1932 0021031 285.3686  74.5165 14.77931999338376"
      },
      "geometry": {
        "type": "Point",
        "coordinates": [
          -41.720385910747524,
          -27.393260833261508
        ]
      }
    },
    {
      "type": "Feature",
      "properties": {
        "norad_id": 36558,
        "name": "COSMOS 2251 DEB",
        "group": "cosmos-2251-debris",
        "lat": -63.05000996672421,
        "lon": 123.62252954415295,
        "alt_km": 708.7253594754038,
        "timestamp": "2025-12-10T23:33:13.215176+00:00",
        "meta_object_name": "COSMOS 2251 DEB",
        "meta_object_id": "1993-036BDU",
        "meta_epoch": "2025-12-09T18:10:09.606432",
        "meta_mean_motion": 14.55323693,
        "meta_eccentricity": 0.00129627,
        "meta_inclination": 74.0418,
        "meta_ra_of_asc_node": 160.1895,
        "meta_arg_of_pericenter": 248.6111,
        "meta_mean_anomaly": 111.367,
        "meta_ephemeris_type": 0,
        "meta_classification_type": "U",
        "meta_norad_cat_id": 36558,
        "meta_element_set_no": 999,
        "meta_rev_at_epoch": 85225,
        "meta_bstar": 0.0013992246,
        "meta_mean_motion_dot": 6.051e-05,
        "meta_mean_motion_ddot": 0,
        "tle_line1": "1 36558U 93036BDU 25343.75705563  .00006051  00000+0  13992-2 0  9990",
        "tle_line2": "2 36558  74.0418 160.1895 0012962 248.6111 111.3670 14.55323693852258"
      },
      "geometry": {
        "type": "Point",
        "coordinates": [
          123.62252954415295,
          -63.05000996672421
        ]
      }
    }
  ]
}